[{"OBJECT_NAME":"STARLINK-3717","OBJECT_ID":"2022-029J","EPOCH":"2026-03-09T10:42:18.324288","MEAN_MOTION":15.08837508,"ECCENTRICITY":0.00014386,"INCLINATION":53.2167,"RA_OF_ASC_NODE":80.2136,"ARG_OF_PERICENTER":91.7214,"MEAN_ANOMALY":268.3943,"EPHEMERIS_TYPE":0,"CLASSIFICATION_TYPE":"U","NORAD_CAT_ID":52096,"ELEMENT_SET_NO":999,"REV_AT_EPOCH":22074,"BSTAR":1.8700982e-5,"MEAN_MOTION_DOT":1.0e-7,"MEAN_MOTION_DDOT":0},{"OBJECT_NAME":"TITAN 34B AGENA D DEB","OBJECT_ID":"1983-078C","EPOCH":"2026-03-08T13:42:22.276224","MEAN_MOTION":5.69081954,"ECCENTRICITY":0.48642599,"INCLINATION":63.3655,"RA_OF_ASC_NODE":166.776,"ARG_OF_PERICENTER":248.0455,"MEAN_ANOMALY":54.5771,"EPHEMERIS_TYPE":0,"CLASSIFICATION_TYPE":"U","NORAD_CAT_ID":23811,"ELEMENT_SET_NO":999,"REV_AT_EPOCH":13229,"BSTAR":0.0089332985,"MEAN_MOTION_DOT":0.00011964,"MEAN_MOTION_DDOT":0}]
